1 45537U 20025G   23025.44168182  .00311969  00000-0  38264-2 0  9993
2 45537  52.9653  90.2737 0008486  27.3649 332.7807 15.58733572154018
1 45537U 20025G   23026.14686824  .00354389  00000-0  42483-2 0  9990
2 45537  52.9651  86.8371 0008783  30.7014 329.4509 15.59192708154120
1 45537U 20025G   23026.46733921  .00331748  00000-0  39581-2 0  9995
2 45537  52.9650  85.2748 0008915  32.1554 327.9999 15.59393209154767
1 45537U 20025G   23026.46733921  .00331748  00000-0  39581-2 0  9995
2 45537  52.9650  85.2748 0008915  32.1554 327.9999 15.59393209154172
1 45537U 20025G   23027.17222349  .00336310  00000-0  39398-2 0  9997
2 45537  52.9646  81.8362 0009131  35.3757 324.7858 15.59857388154286
1 45537U 20025G   23027.36442891  .00310286  00000-0  36313-2 0  9992
2 45537  52.9646  80.8982 0009146  36.2192 323.9437 15.59971244154903
1 45537U 20025G   23027.36442891  .00310286  00000-0  36313-2 0  9992
2 45537  52.9646  80.8982 0009146  36.2192 323.9437 15.59971244154318
1 45537U 20025G   23028.38928162  .00329922  00000-0  37583-2 0  9992
2 45537  52.9652  75.8941 0009518  40.3954 319.7762 15.60608289155064
1 45537U 20025G   23028.38928162  .00329922  00000-0  37583-2 0  9992
2 45537  52.9652  75.8941 0009518  40.3954 319.7762 15.60608289154478
1 45537U 20025G   23028.83752384  .00296019  00000-0  33527-2 0  9997
2 45537  52.9652  73.7038 0009599  42.8817 317.2942 15.60871345155138
1 45537U 20025G   23029.15765146  .00290986  00000-0  32744-2 0  9990
2 45537  52.9650  72.1394 0009678  44.4268 315.7518 15.61056182154596
1 45537U 20025G   23029.41372461  .00303038  00000-0  33843-2 0  9997
2 45537  52.9648  70.8869 0009740  45.9202 314.2610 15.61212053155228
1 45537U 20025G   23029.41372461  .00303038  00000-0  33843-2 0  9997
2 45537  52.9648  70.8869 0009740  45.9202 314.2610 15.61212053154632
1 45537U 20025G   23030.11780857  .00276486  00000-0  30535-2 0  9999
2 45537  52.9648  67.4433 0009931  49.1211 311.0660 15.61588173154740
1 45537U 20025G   23030.37379493  .00277059  00000-0  30422-2 0  9999
2 45537  52.9649  66.1909 0009977  50.5519 309.6374 15.61735289155379
1 45537U 20025G   23030.82171654  .00288449  00000-0  31322-2 0  9993
2 45537  52.9653  63.9990 0010146  52.5282 307.6651 15.61983122155443
1 45537U 20025G   23031.07764075  .00279470  00000-0  30222-2 0  9998
2 45537  52.9653  62.7461 0010203  53.7172 306.4781 15.62118724155482
1 45537U 20025G   23031.07764075  .00279470  00000-0  30222-2 0  9998
2 45537  52.9653  62.7461 0010203  53.7172 306.4781 15.62118724154896
1 45537U 20025G   23031.78130090  .00329582  00000-0  34810-2 0  9997
2 45537  52.9649  59.3001 0010332  57.7175 302.4837 15.62559610155592
1 45537U 20025G   23031.78130090  .00329582  00000-0  34810-2 0  9997
2 45537  52.9649  59.3001 0010332  57.7175 302.4837 15.62559610155008
